[{"OBJECT_NAME":"STARLINK-33668","OBJECT_ID":"2025-065D","EPOCH":"2026-03-09T11:02:56.243616","MEAN_MOTION":15.27588199,"ECCENTRICITY":0.00014423,"INCLINATION":42.9904,"RA_OF_ASC_NODE":108.4811,"ARG_OF_PERICENTER":73.3421,"MEAN_ANOMALY":286.7589,"EPHEMERIS_TYPE":0,"CLASSIFICATION_TYPE":"U","NORAD_CAT_ID":63402,"ELEMENT_SET_NO":999,"REV_AT_EPOCH":5280,"BSTAR":0.00081705876,"MEAN_MOTION_DOT":0.00022295,"MEAN_MOTION_DDOT":0},{"OBJECT_NAME":"OKEAN-1","OBJECT_ID":"1988-056A","EPOCH":"2026-03-09T21:19:04.260000","MEAN_MOTION":15.31672069,"ECCENTRICITY":0.00129431,"INCLINATION":82.4671,"RA_OF_ASC_NODE":262.7586,"ARG_OF_PERICENTER":168.0696,"MEAN_ANOMALY":192.0855,"EPHEMERIS_TYPE":0,"CLASSIFICATION_TYPE":"U","NORAD_CAT_ID":19274,"ELEMENT_SET_NO":999,"REV_AT_EPOCH":3511,"BSTAR":0.00038371192,"MEAN_MOTION_DOT":0.00011798,"MEAN_MOTION_DDOT":0}]
